ONEWEB-0098             
1 45442U 20020U   24236.86020210 -.00000013  00000+0 -72784-4 0  9996
2 45442  87.8996 152.9403 0001935  83.8597 276.2751 13.11414355215837
ONEWEB-0055             
1 45443U 20020V   24236.84579996  .00000526  00000+0  14495-2 0  9995
2 45443  87.8996 152.9456 0001847  76.6278 283.5055 13.11414924215812
ONEWEB-0093             
1 45444U 20020W   24236.82120604  .00000010  00000+0 -71096-5 0  9994
2 45444  87.8998 152.9322 0001695  74.2085 285.9230 13.11417569215873
ONEWEB-0029             
1 45445U 20020X   24236.83986624  .00000582  00000+0  16059-2 0  9996
2 45445  87.8998 152.9422 0001814  70.3603 289.7721 13.11416260215853
ONEWEB-0068             
1 45446U 20020Y   24236.81524517 -.00000027  00000+0 -11314-3 0  9990
2 45446  87.8999 152.9324 0001816  71.1700 288.9625 13.11422128215792
ONEWEB-0046             
1 45447U 20020Z   24236.81272255 -.00000353  00000+0 -10331-2 0  9999
2 45447  87.9000 152.9451 0002134  68.3823 291.7532 13.11417525215802
ONEWEB-0063             
1 45448U 20020AA  24237.14675012  .00000602  00000+0  16620-2 0  9997
2 45448  87.8997 152.8795 0002215  72.9762 287.1608 13.11416749215923
ONEWEB-0019             
1 45449U 20020AB  24236.81611549  .00000009  00000+0 -93982-5 0  9997
2 45449  87.9002 152.9505 0002040  79.5356 280.6002 13.11419396215736
